OPTICUBE 04             
1 41851U 16067D   25019.55261662  .00005700  00000+0  39699-3 0  9999
2 41851  98.0874 200.2715 0018294  53.1507 307.1393 15.05743856447767
AEROCUBE 8D             
1 41852U 16067E   25019.47835628  .00012366  00000+0  68297-3 0  9992
2 41852  98.1108 207.5900 0005268  94.1600 266.0232 15.14071643448057
AEROCUBE 8C             
1 41853U 16067F   25019.49255050  .00011964  00000+0  65986-3 0  9995
2 41853  98.0945 205.6785 0007533  33.3291 326.8412 15.14117760448049
PROMETHEUS 2-1          
1 41854U 16067G   25019.49489633  .00040835  00000+0  12664-2 0  9995
2 41854  98.0914 217.9013 0009790  30.0365 330.1435 15.33252677448680
PROMETHEUS 2-3          
1 41855U 16067H   25019.50044072  .00040967  00000+0  12739-2 0  9991
2 41855  98.0854 217.1887 0008467  39.0741 321.1109 15.33178188448684
CORVUS BC2              
1 42846U 17042X   25019.48765675  .00005997  00000+0  47153-3 0  9995
2 42846  97.3676 199.0720 0014495  53.7582 306.4980 15.01126462409859
CORVUS BC1              
1 42847U 17042Y   25019.42691440  .00006508  00000+0  50902-3 0  9993
2 42847  97.3698 199.4432 0013802  31.4924 328.7125 15.01300457409869
MIRATA                  
1 43015U 17073C   25019.22110269  .00050872  00000+0  14814-2 0  9992
2 43015  97.5631 269.8834 0119147 231.9366 127.1077 15.28387096389070
MAKERSAT 0              
1 43016U 17073D   25019.57041576  .00027237  00000+0  12615-2 0  9991
2 43016  97.5413 259.5485 0162344 266.6428  91.6219 15.09032593388427
SIRION PATHFINDER-2     
1 43759U 18099B   25019.71667031  .00009229  00000+0  61311-3 0  9999
2 43759  97.4995  76.0888 0008892 269.4524  90.5685 15.07388294335077
CORVUS BC4              
1 43767U 18099K   25019.22017726  .00008530  00000+0  58611-3 0  9997
2 43767  97.4825  72.0479 0009021 335.5717  24.5082 15.06157133334863
MOVE-II                 
1 43780U 18099Y   25019.14498590  .00064608  00000+0  17196-2 0  9995
2 43780  97.4888  88.7545 0003942 302.5527  57.5337 15.37968778335841
SPACEBEE-7              
1 43816U 18099BL  25019.21691521  .00031868  00000+0  12732-2 0  9995
2 43816  97.5179  87.8277 0006711 255.2769 104.7725 15.25047689335174
SHIELDS 1               
1 43850U 18104B   25019.30931376  .00031840  00000+0  56223-3 0  9999
2 43850  85.0212 135.1972 0007864 336.9595  23.1308 15.50178746339492
SONATE                  
1 44400U 19038Q   25019.55971582  .00074454  00000+0  11006-2 0  9995
2 44400  97.7121  32.3144 0012858  56.1035 304.1439 15.54978121307447
DUCHIFAT-3              
1 44854U 19089C   25019.73022259  .00048288  00000+0  15327-2 0  9998
2 44854  36.9481 160.7918 0009600 102.8006 257.3819 15.31655331281236
M2 PATHFINDER           
1 45727U 20037E   25019.44931990  .00006835  00000+0  54852-3 0  9991
2 45727  97.7844 201.3596 0013143  97.3072 262.9646 15.00332211248335
NETSAT-4                
1 46504U 20068U   25019.90055948  .00024545  00000+0  10092-2 0  9995
2 46504  97.8323 350.5613 0007752 350.0823  10.0259 15.24134667237073
NETSAT-3                
1 46505U 20068V   25019.84672644  .00021197  00000+0  89582-3 0  9998
2 46505  97.8312 349.7301 0007812   0.8309 359.2938 15.23237356237049
NETSAT-1                
1 46506U 20068W   25019.84705560  .00017242  00000+0  80609-3 0  9990
2 46506  97.8334 348.4384 0007574  13.2506 346.8925 15.19829243236957
NETSAT-2                
1 46507U 20068X   25019.46899386  .00020012  00000+0  82950-3 0  9999
2 46507  97.8312 349.6737 0006874  20.8472 339.3043 15.23913051236951
WILDTRACKCUBE-SIMBA     
1 47941U 21022K   25019.84930427  .00036360  00000+0  10814-2 0  9999
2 47941  97.4382 282.2077 0014218  95.5938 264.6926 15.34550174211535
GRBALPHA                
1 47959U 21022AD  25019.83180927  .00084787  00000+0  15822-2 0  9999
2 47959  97.4368 286.6207 0012032  81.9201 278.3414 15.48410050210643
BEESAT-8                
1 48085U 21022AP  25019.49364904  .01274248  84768-3  27039-2 0  9995
2 48085  97.4822 295.1549 0009909  93.5688 266.6722 15.98842529211367
LEDSAT                  
1 49069U 21073D   25019.70462540  .00049884  00000+0  11755-2 0  9999
2 49069  97.4091  97.3762 0013091 230.2279 129.7815 15.41677264189603
ROBUSTA-1F (MTCUBE 2)   
1 53109U 22080E   25019.27317400 -.00000003  00000+0  00000+0 0  9993
2 53109  70.1272 116.9864 0008349  39.2651 320.8613  6.42583861 59048
SITRO-AIS 5 (KATYS)     
1 57176U 23091L   25019.86927052  .00016246  00000+0  85712-3 0  9991
2 57176  97.5820  76.8403 0016856  97.2842 263.0307 15.15505387 86235
SITRO-AIS 6 (CHIRKIN)   
1 57192U 23091AC  25019.78403870  .00015510  00000+0  81994-3 0  9998
2 57192  97.5815  76.7843 0016607  97.4359 262.8760 15.15449080 86229
SITRO-AIS 8 (ANOKHIN)   
1 57193U 23091AD  25019.80181395  .00017147  00000+0  88182-3 0  9991
2 57193  97.5815  77.0549 0016253  97.4785 262.8295 15.16404294 86241
SITRO-AIS 7 (FARTUSHNIY)
1 57194U 23091AE  25019.79886815  .00015558  00000+0  82342-3 0  9995
2 57194  97.5816  76.7551 0016583  97.9293 262.3822 15.15407553 86226
SITRO-AIS 10 (BURDAEV)  
1 57199U 23091AK  25019.86201723  .00020858  00000+0  99586-3 0  9994
2 57199  97.5825  78.7701 0011778  84.4054 275.8523 15.19016654 86350
SITRO-AIS 9 (SHCHUKIN)  
1 57201U 23091AM  25019.80077699  .00019075  00000+0  91386-3 0  9994
2 57201  97.5822  78.6610 0011772  84.8610 275.3967 15.18917116 86343
SITRO-AIS 12 (SMIRENNIY)
1 57204U 23091AQ  25019.60378512  .00019521  00000+0  92998-3 0  9999
2 57204  97.5832  78.6845 0011677  80.0074 280.2477 15.19108176 86321
SITRO-AIS 11 (SHEFFER)  
1 57208U 23091AU  25019.83586339  .00020873  00000+0  98964-3 0  9997
2 57208  97.5829  78.9734 0011484  79.5314 280.7214 15.19261284 86365
VERONIKA                
1 58261U 23174F   25019.75038899  .00068985  00000+0  16590-2 0  9993
2 58261  97.4336 100.9147 0007997 192.7528 167.3517 15.41030216 66818
ROBUSTA-1E (ENSO)       
1 58470U 23185J   25019.85505354  .00050287  00000+0  12855-2 0  9999
2 58470  97.3956  92.1375 0008556 225.5317 134.5229 15.39251482 63275
SITRO-AIS 29            
1 59052U 24039B   25019.86688574  .00094512  00000+0  14800-2 0  9993
2 59052  97.4118 349.7210 0013113 138.8230 221.4015 15.53310378 49906
SITRO-AIS 30            
1 59053U 24039C   25019.84472090  .00090749  00000+0  14630-2 0  9995
2 59053  97.4109 349.5913 0013136 140.1931 220.0288 15.52515441 49885
SITRO-AIS 31            
1 59054U 24039D   25019.86193990  .00092585  00000+0  14607-2 0  9991
2 59054  97.4129 349.7226 0012709 142.1930 218.0218 15.53116172 49916
SITRO-AIS 33            
1 59055U 24039E   25019.90101061  .00093929  00000+0  14740-2 0  9996
2 59055  97.4118 349.8349 0012668 139.3933 220.8267 15.53260142 49919
SITRO-AIS 35            
1 59056U 24039F   25019.89250459  .00098407  00000+0  15369-2 0  9995
2 59056  97.4131 349.8416 0012393 142.1406 218.0721 15.53380312 49918
SITRO-AIS 32            
1 59057U 24039G   25019.86963110  .00092542  00000+0  14760-2 0  9996
2 59057  97.4126 349.7290 0012835 141.3718 218.8456 15.52811771 49909
SITRO-AIS 34            
1 59058U 24039H   25019.90099850  .00093188  00000+0  14648-2 0  9995
2 59058  97.4121 349.8376 0012638 139.4530 220.7667 15.53217246 49917
SITRO-AIS 36            
1 59059U 24039J   25019.87804376  .00095606  00000+0  15009-2 0  9998
2 59059  97.4106 349.8605 0012168 140.1429 220.0720 15.53250423 49917
SITRO-AIS 49            
1 59060U 24039K   25019.90591033  .00092071  00000+0  14690-2 0  9995
2 59060  97.4115 349.8291 0012613 140.0653 220.1530 15.52807134 49919
SITRO-AIS 50            
1 59061U 24039L   25019.90088399  .00093993  00000+0  14435-2 0  9993
2 59061  97.4108 349.9796 0012243 137.4933 222.7271 15.53863665 49926
SITRO-AIS 51            
1 59062U 24039M   25019.89421872  .00103169  00000+0  15684-2 0  9993
2 59062  97.4112 349.9856 0012177 137.9109 222.3082 15.54111436 49924
SITRO-AIS 52            
1 59063U 24039N   25019.87417911  .00096468  00000+0  14641-2 0  9996
2 59063  97.4116 350.0214 0012144 140.0073 220.2077 15.54182291 49927
SITRO-AIS 25            
1 59066U 24039R   25019.86516845  .00008908  00000+0  78814-3 0  9999
2 59066  95.3832 244.3458 0159786 315.9588  42.8995 14.87053335 48269
SITRO-AIS 26            
1 59067U 24039S   25019.87737868  .00009448  00000+0  83836-3 0  9991
2 59067  95.3832 244.3342 0159955 316.0358  42.8229 14.86916161 48261
SITRO-AIS 27            
1 59068U 24039T   25019.83469285  .00009471  00000+0  83548-3 0  9999
2 59068  95.3836 244.3805 0159244 315.7806  43.0778 14.87210935 48264
SITRO-AIS 28            
1 59071U 24039U   25019.89288669  .00009714  00000+0  85623-3 0  9990
2 59071  95.3837 244.4382 0159101 315.5101  43.3434 14.87252397 48279
GRBBETA                 
1 60237U 24128C   25019.50099167  .00006405  00000+0  51528-3 0  9997
2 60237  61.9915 210.6891 0036304  24.3845 335.8952 15.00446184 29010
OOV-CUBE (TUBSAT-30)    
1 60240U 24128F   25019.50287436  .00004272  00000+0  36469-3 0  9996
2 60240  61.9955 211.8662 0034693  20.2176 340.0278 14.98812199 29005
ROBUSTA-3A (MEDITERRAN*)
1 60243U 24128J   25019.87261238  .00009474  00000+0  74085-3 0  9996
2 60243  61.9888 209.6437 0034407  16.0550 344.1622 15.01167552 29076
